H1 CPF  1  HTS 2022 10 11 12  7841 larets           NONE
H2  0304206 5557    27944 2022 10 11  0  0  0 2022 10 16  0  0  0   180 1 1  0 0 0
H5  0.0560 
H9 
10 0 59865  46440.00000  0   -6548936.125   -2066662.915    1651326.562
10 0 59865  46620.00000  0   -6214506.886   -1665215.127    2913756.650
10 0 59865  46800.00000  0   -5642800.593   -1215075.356    4069407.635
10 0 59865  46980.00000  0   -4853817.320    -738627.117    5076064.198
10 0 59865  47160.00000  0   -3876020.630    -258546.879    5897057.912
10 0 59865  47340.00000  0   -2745249.723     203236.368    6502572.526
10 0 59865  47520.00000  0   -1503355.692     626510.565    6870680.677
10 0 59865  47700.00000  0    -196626.157     993636.005    6988085.710
10 0 59865  47880.00000  0    1125938.611    1290260.777    6850560.839
10 0 59865  48060.00000  0    2414444.188    1505872.943    6463086.218
10 0 59865  48240.00000  0    3619964.057    1634171.886    5839683.063
10 0 59865  48420.00000  0    4696391.412    1673246.825    5002945.124
10 0 59865  48600.00000  0    5602216.627    1625558.358    3983271.794
10 0 59865  48780.00000  0    6302173.493    1497723.982    2817813.012
10 0 59865  48960.00000  0    6768671.585    1300110.760    1549139.763
10 0 59865  49140.00000  0    6982947.127    1046252.055     223689.924
10 0 59865  49320.00000  0    6935868.052     752116.218   -1109959.514
10 0 59865  49500.00000  0    6628343.163     435261.613   -2402920.224
10 0 59865  49680.00000  0    6071309.480     113921.256   -3607832.574
10 0 59865  49860.00000  0    5285304.113    -193931.259   -4680637.289
10 0 59865  50040.00000  0    4299642.005    -471484.884   -5582199.283
10 0 59865  50220.00000  0    3151254.928    -703917.111   -6279716.204
10 0 59865  50400.00000  0    1883253.293    -879107.703   -6747874.233
10 0 59865  50580.00000  0     543274.630    -988207.839   -6969715.910
10 0 59865  50760.00000  0    -818311.813   -1026045.608   -6937211.057
10 0 59865  50940.00000  0   -2150286.192    -991352.697   -6651524.115
10 0 59865  51120.00000  0   -3402486.695    -886806.654   -6122975.261
10 0 59865  51300.00000  0   -4527684.685    -718887.177   -5370697.150
10 0 59865  51480.00000  0   -5483377.884    -497551.918   -4421994.425
10 0 59865  51660.00000  0   -6233435.458    -235741.943   -3311404.158
10 0 59865  51840.00000  0   -6749528.167      51265.746   -2079475.619
10 0 59865  52020.00000  0   -7012272.021     346632.706    -771299.624
10 0 59865  52200.00000  0   -7012021.967     632824.479     565165.663
10 0 59865  52380.00000  0   -6749257.962     892521.280    1880899.443
10 0 59865  52560.00000  0   -6234550.853    1109525.554    3127667.159
10 0 59865  52740.00000  0   -5488104.907    1269617.624    4259836.486
10 0 59865  52920.00000  0   -4538902.032    1361313.750    5236070.729
10 0 59865  53100.00000  0   -3423507.099    1376488.896    6020828.231
10 0 59865  53280.00000  0   -2184602.189    1310837.204    6585623.151
10 0 59865  53460.00000  0    -869311.814    1164152.824    6910013.507
10 0 59865  53640.00000  0     472606.325     940420.029    6982286.592
10 0 59865  53820.00000  0    1790631.355     647711.102    6799843.389
10 0 59865  54000.00000  0    3035358.323     297896.985    6369283.402
10 0 59865  54180.00000  0    4160334.223     -93821.847    5706187.927
10 0 59865  54360.00000  0    5123795.601    -509551.495    4834598.413
10 0 59865  54540.00000  0    5890246.688    -929486.671    3786195.986
10 0 59865  54720.00000  0    6431820.293   -1332809.783    2599194.981
10 0 59865  54900.00000  0    6729357.747   -1698669.082    1316972.037
10 0 59865  55080.00000  0    6773148.530   -2007189.269     -13523.884
10 0 59865  55260.00000  0    6563288.027   -2240467.041   -1343522.439
10 0 59865  55440.00000  0    6109623.662   -2383493.819   -2624269.552
10 0 59865  55620.00000  0    5431290.586   -2424957.047   -3808863.278
10 0 59865  55800.00000  0    4555866.829   -2357877.095   -4854002.156
10 0 59865  55980.00000  0    3518198.710   -2180051.158   -5721575.835
10 0 59865  56160.00000  0    2358956.106   -1894283.650   -6380032.716
10 0 59865  56340.00000  0    1123000.765   -1508395.656   -6805484.321
10 0 59865  56520.00000  0    -142368.599   -1035015.479   -6982525.334
10 0 59865  56700.00000  0   -1389224.310    -491162.283   -6904748.648
10 0 59865  56880.00000  0   -2570809.193     102363.113   -6574957.661
10 0 59865  57060.00000  0   -3643273.497     721763.977   -6005071.414
10 0 59865  57240.00000  0   -4567296.481    1341184.571   -5215729.824
10 0 59865  57420.00000  0   -5309549.849    1933770.334   -4235599.407
10 0 59865  57600.00000  0   -5843945.929    2472818.332   -3100381.794
10 0 59865  57780.00000  0   -6152612.314    2932965.137   -1851544.302
10 0 59865  57960.00000  0   -6226547.338    3291358.812    -534810.524
10 0 59865  58140.00000  0   -6065914.419    3528757.159     801539.554
10 0 59865  58320.00000  0   -5679950.281    3630489.501    2108489.765
10 0 59865  58500.00000  0   -5086485.436    3587229.436    3338139.767
10 0 59865  58680.00000  0   -4311110.303    3395538.145    4445501.689
10 0 59865  58860.00000  0   -3386034.388    3058151.000    5390163.790
10 0 59865  59040.00000  0   -2348704.816    2584000.385    6137752.971
10 0 59865  59220.00000  0   -1240251.830    1987978.431    6661149.893
10 0 59865  59400.00000  0    -103835.898    1290451.545    6941418.709
10 0 59865  59580.00000  0    1017028.850     516552.490    6968439.463
10 0 59865  59760.00000  0    2080123.238    -304723.891    6741242.419
10 0 59865  59940.00000  0    3046094.143   -1141594.794    6268041.034
10 0 59865  60120.00000  0    3879903.716   -1960704.147    5565962.153
10 0 59865  60300.00000  0    4552112.221   -2728439.840    4660470.577
10 0 59865  60480.00000  0    5039946.679   -3412308.721    3584496.951
10 0 59865  60660.00000  0    5328117.144   -3982318.995    2377282.296
10 0 59865  60840.00000  0    5409335.584   -4412303.983    1082961.860
10 0 59865  61020.00000  0    5284505.043   -4681122.961    -251058.951
10 0 59865  61200.00000  0    4962568.295   -4773675.883   -1575875.032
10 0 59865  61380.00000  0    4460016.914   -4681673.532   -2842924.270
10 0 59865  61560.00000  0    3800084.347   -4404120.013   -4005814.985
10 0 59865  61740.00000  0    3011669.018   -3947484.610   -5022054.611
10 0 59865  61920.00000  0    2128046.348   -3325557.230   -5854605.070
10 0 59865  62100.00000  0    1185441.263   -2559004.372   -6473203.285
10 0 59865  62280.00000  0     221531.446   -1674653.987   -6855418.651
10 0 59865  62460.00000  0    -726060.945    -704532.763   -6987419.037
10 0 59865  62640.00000  0   -1621225.417     315300.352   -6864430.021
10 0 59865  62820.00000  0   -2430724.351    1346083.722   -6490891.232
10 0 59865  63000.00000  0   -3125416.777    2347808.441   -5880308.878
10 0 59865  63180.00000  0   -3681310.175    3280758.129   -5054809.159
10 0 59865  63360.00000  0   -4080411.507    4107087.698   -4044390.165
10 0 59865  63540.00000  0   -4311337.949    4792378.344   -2885874.714
10 0 59865  63720.00000  0   -4369655.215    5307100.281   -1621595.449
10 0 59865  63900.00000  0   -4257932.162    5627915.886    -297850.707
10 0 59865  64080.00000  0   -3985498.732    5738755.029    1036820.374
10 0 59865  64260.00000  0   -3567913.071    5631596.210    2333467.478
10 0 59865  64440.00000  0   -3026163.074    5306910.154    3544582.096
10 0 59865  64620.00000  0   -2385643.272    4773738.673    4625876.598
10 0 59865  64800.00000  0   -1674973.209    4049418.913    5537913.186
10 0 59865  64980.00000  0    -924718.479    3158970.904    6247525.742
10 0 59865  65160.00000  0    -166077.066    2134182.482    6728983.428
10 0 59865  65340.00000  0     570407.520    1012441.491    6964869.439
10 0 59865  65520.00000  0    1256060.960    -164638.410    6946664.782
10 0 59865  65700.00000  0    1865179.071   -1352751.159    6675029.806
10 0 59865  65880.00000  0    2375981.288   -2506548.029    6159784.467
10 0 59865  66060.00000  0    2771389.853   -3581355.358    5419583.879
10 0 59865  66240.00000  0    3039608.851   -4534905.473    4481288.596
10 0 59865  66420.00000  0    3174482.689   -5329018.994    3379039.800
10 0 59865  66600.00000  0    3175619.267   -5931172.708    2153053.442
10 0 59865  66780.00000  0    3048265.504   -6315879.080     848165.143
10 0 59865  66960.00000  0    2802938.737   -6465804.371    -487821.953
10 0 59865  67140.00000  0    2454831.771   -6372570.534   -1805924.920
10 0 59865  67320.00000  0    2023012.634   -6037184.956   -3057830.393
10 0 59865  67500.00000  0    1529462.546   -5470075.436   -4197713.660
10 0 59865  67680.00000  0     998005.593   -4690724.587   -5183941.981
10 0 59865  67860.00000  0     453195.571   -3726939.278   -5980589.305
10 0 59865  68040.00000  0     -80790.488   -2613799.286   -6558714.749
10 0 59865  68220.00000  0    -581201.496   -1392335.407   -6897366.364
10 0 59865  68400.00000  0   -1027660.117    -107996.027   -6984291.553
10 0 59865  68580.00000  0   -1402975.483    1191042.532   -6816345.106
10 0 59865  68760.00000  0   -1693796.429    2455664.836   -6399591.204
10 0 59865  68940.00000  0   -1891084.833    3637653.715   -5749104.700
10 0 59865  69120.00000  0   -1990397.009    4691526.439   -4888470.889
10 0 59865  69300.00000  0   -1991962.742    5576307.999   -3848982.085
10 0 59865  69480.00000  0   -1900556.385    6257169.506   -2668539.923
10 0 59865  69660.00000  0   -1725160.644    6706856.479   -1390295.671
10 0 59865  69840.00000  0   -1478438.877    6906840.405     -61068.427
10 0 59865  70020.00000  0   -1176038.155    6848129.573    1270399.228
10 0 59865  70200.00000  0    -835756.422    6531689.021    2555284.402
10 0 59865  70380.00000  0    -476618.377    5968427.658    3746528.707
10 0 59865  70560.00000  0    -117913.349    5178776.181    4800590.419
10 0 59865  70740.00000  0     221755.020    4191881.525    5679047.476
99
